{
  "type": "FeatureCollection",
  "features": [
    {
      "type": "Feature",
      "properties": {
        "norad_id": 35043,
        "name": "COSMOS 2251 DEB",
        "group": "cosmos-2251-debris",
        "lat": 41.26575521927544,
        "lon": -160.64383191196535,
        "alt_km": 652.1627061462032,
        "timestamp": "2025-12-18T14:52:08.420529+00:00",
        "meta_object_name": "COSMOS 2251 DEB",
        "meta_object_id": "1993-036AHG",
        "meta_epoch": "2025-12-17T20:21:53.442144",
        "meta_mean_motion": 14.77209563,
        "meta_eccentricity": 0.00961591,
        "meta_inclination": 73.9521,
        "meta_ra_of_asc_node": 35.5053,
        "meta_arg_of_pericenter": 244.0686,
        "meta_mean_anomaly": 115.0556,
        "meta_ephemeris_type": 0,
        "meta_classification_type": "U",
        "meta_norad_cat_id": 35043,
        "meta_element_set_no": 999,
        "meta_rev_at_epoch": 67494,
        "meta_bstar": 0.0025445416,
        "meta_mean_motion_dot": 0.00019479,
        "meta_mean_motion_ddot": 0,
        "tle_line1": "1 35043U 93036AHG 25351.84853521  .00019479  00000+0  25445-2 0  9999",
        "tle_line2": "2 35043  73.9521  35.5053 0096159 244.0686 115.0556 14.77209563674942"
      },
      "geometry": {
        "type": "Point",
        "coordinates": [
          -160.64383191196535,
          41.26575521927544
        ]
      }
    },
    {
      "type": "Feature",
      "properties": {
        "norad_id": 35045,
        "name": "COSMOS 2251 DEB",
        "group": "cosmos-2251-debris",
        "lat": 37.546970092379595,
        "lon": -150.66062279924037,
        "alt_km": 995.1534067807625,
        "timestamp": "2025-12-18T14:52:08.420538+00:00",
        "meta_object_name": "COSMOS 2251 DEB",
        "meta_object_id": "1993-036AHJ",
        "meta_epoch": "2025-12-17T21:02:24.491040",
        "meta_mean_motion": 14.00397083,
        "meta_eccentricity": 0.01838417,
        "meta_inclination": 73.7196,
        "meta_ra_of_asc_node": 43.6312,
        "meta_arg_of_pericenter": 284.9359,
        "meta_mean_anomaly": 73.1483,
        "meta_ephemeris_type": 0,
        "meta_classification_type": "U",
        "meta_norad_cat_id": 35045,
        "meta_element_set_no": 999,
        "meta_rev_at_epoch": 84715,
        "meta_bstar": 0.00057935315,
        "meta_mean_motion_dot": 9.66e-06,
        "meta_mean_motion_ddot": 0,
        "tle_line1": "1 35045U 93036AHJ 25351.87667235  .00000966  00000+0  57935-3 0  9990",
        "tle_line2": "2 35045  73.7196  43.6312 0183841 284.9359  73.1483 14.00397083847152"
      },
      "geometry": {
        "type": "Point",
        "coordinates": [
          -150.66062279924037,
          37.546970092379595
        ]
      }
    },
    {
      "type": "Feature",
      "properties": {
        "norad_id": 35060,
        "name": "COSMOS 2251 DEB",
        "group": "cosmos-2251-debris",
        "lat": -19.197338737561747,
        "lon": 59.15768892167311,
        "alt_km": 764.3693751248111,
        "timestamp": "2025-12-18T14:52:08.420548+00:00",
        "meta_object_name": "COSMOS 2251 DEB",
        "meta_object_id": "1993-036AHP",
        "meta_epoch": "2025-12-17T09:37:48.798336",
        "meta_mean_motion": 14.41611034,
        "meta_eccentricity": 0.00186104,
        "meta_inclination": 74.0362,
        "meta_ra_of_asc_node": 235.6937,
        "meta_arg_of_pericenter": 321.6138,
        "meta_mean_anomaly": 38.3692,
        "meta_ephemeris_type": 0,
        "meta_classification_type": "U",
        "meta_norad_cat_id": 35060,
        "meta_element_set_no": 999,
        "meta_rev_at_epoch": 87309,
        "meta_bstar": 0.00026105938,
        "meta_mean_motion_dot": 8.25e-06,
        "meta_mean_motion_ddot": 0,
        "tle_line1": "1 35060U 93036AHP 25351.40125924  .00000825  00000+0  26106-3 0  9990",
        "tle_line2": "2 35060  74.0362 235.6937 0018610 321.6138  38.3692 14.41611034873096"
      },
      "geometry": {
        "type": "Point",
        "coordinates": [
          59.15768892167311,
          -19.197338737561747
        ]
      }
    },
    {
      "type": "Feature",
      "properties": {
        "norad_id": 35061,
        "name": "COSMOS 2251 DEB",
        "group": "cosmos-2251-debris",
        "lat": -71.79641345783621,
        "lon": -126.07956945250469,
        "alt_km": 690.4940036588814,
        "timestamp": "2025-12-18T14:52:08.420558+00:00",
        "meta_object_name": "COSMOS 2251 DEB",
        "meta_object_id": "1993-036AHQ",
        "meta_epoch": "2025-12-16T02:43:00.799680",
        "meta_mean_motion": 14.67857584,
        "meta_eccentricity": 0.00392707,
        "meta_inclination": 74.0455,
        "meta_ra_of_asc_node": 299.2082,
        "meta_arg_of_pericenter": 49.0905,
        "meta_mean_anomaly": 311.3654,
        "meta_ephemeris_type": 0,
        "meta_classification_type": "U",
        "meta_norad_cat_id": 35061,
        "meta_element_set_no": 999,
        "meta_rev_at_epoch": 88624,
        "meta_bstar": 0.00056925781,
        "meta_mean_motion_dot": 3.26e-05,
        "meta_mean_motion_ddot": 0,
        "tle_line1": "1 35061U 93036AHQ 25350.11320370  .00003260  00000+0  56926-3 0  9999",
        "tle_line2": "2 35061  74.0455 299.2082 0039270  49.0905 311.3654 14.67857584886248"
      },
      "geometry": {
        "type": "Point",
        "coordinates": [
          -126.07956945250469,
          -71.79641345783621
        ]
      }
    },
    {
      "type": "Feature",
      "properties": {
        "norad_id": 35062,
        "name": "COSMOS 2251 DEB",
        "group": "cosmos-2251-debris",
        "lat": 66.9196245793138,
        "lon": -139.35111800592583,
        "alt_km": 726.4445454753659,
        "timestamp": "2025-12-18T14:52:08.420568+00:00",
        "meta_object_name": "COSMOS 2251 DEB",
        "meta_object_id": "1993-036AHR",
        "meta_epoch": "2025-12-18T05:56:30.700320",
        "meta_mean_motion": 14.22976821,
        "meta_eccentricity": 0.01266493,
        "meta_inclination": 74.079,
        "meta_ra_of_asc_node": 83.3696,
        "meta_arg_of_pericenter": 81.4533,
        "meta_mean_anomaly": 280.094,
        "meta_ephemeris_type": 0,
        "meta_classification_type": "U",
        "meta_norad_cat_id": 35062,
        "meta_element_set_no": 999,
        "meta_rev_at_epoch": 85577,
        "meta_bstar": 0.0011847089,
        "meta_mean_motion_dot": 2.873e-05,
        "meta_mean_motion_ddot": 0,
        "tle_line1": "1 35062U 93036AHR 25352.24757755  .00002873  00000+0  11847-2 0  9998",
        "tle_line2": "2 35062  74.0790  83.3696 0126649  81.4533 280.0940 14.22976821855779"
      },
      "geometry": {
        "type": "Point",
        "coordinates": [
          -139.35111800592583,
          66.9196245793138
        ]
      }
    },
    {
      "type": "Feature",
      "properties": {
        "norad_id": 35065,
        "name": "COSMOS 2251 DEB",
        "group": "cosmos-2251-debris",
        "lat": -73.29666529830209,
        "lon": 110.61643407920896,
        "alt_km": 734.587608052525,
        "timestamp": "2025-12-18T14:52:08.420578+00:00",
        "meta_object_name": "COSMOS 2251 DEB",
        "meta_object_id": "1993-036AHU",
        "meta_epoch": "2025-12-15T07:32:45.576096",
        "meta_mean_motion": 14.45733893,
        "meta_eccentricity": 0.00199052,
        "meta_inclination": 74.019,
        "meta_ra_of_asc_node": 189.5298,
        "meta_arg_of_pericenter": 314.3681,
        "meta_mean_anomaly": 45.5846,
        "meta_ephemeris_type": 0,
        "meta_classification_type": "U",
        "meta_norad_cat_id": 35065,
        "meta_element_set_no": 999,
        "meta_rev_at_epoch": 68388,
        "meta_bstar": 0.00034144119,
        "meta_mean_motion_dot": 1.186e-05,
        "meta_mean_motion_ddot": 0,
        "tle_line1": "1 35065U 93036AHU 25349.31441639  .00001186  00000+0  34144-3 0  9998",
        "tle_line2": "2 35065  74.0190 189.5298 0019905 314.3681  45.5846 14.45733893683886"
      },
      "geometry": {
        "type": "Point",
        "coordinates": [
          110.61643407920896,
          -73.29666529830209
        ]
      }
    },
    {
      "type": "Feature",
      "properties": {
        "norad_id": 35071,
        "name": "COSMOS 2251 DEB",
        "group": "cosmos-2251-debris",
        "lat": -72.85270387642493,
        "lon": 92.24212085959444,
        "alt_km": 599.0410999468031,
        "timestamp": "2025-12-18T14:52:08.420588+00:00",
        "meta_object_name": "COSMOS 2251 DEB",
        "meta_object_id": "1993-036AJA",
        "meta_epoch": "2025-12-15T18:34:31.974816",
        "meta_mean_motion": 15.0351885,
        "meta_eccentricity": 0.00682233,
        "meta_inclination": 73.9308,
        "meta_ra_of_asc_node": 167.1964,
        "meta_arg_of_pericenter": 62.71,
        "meta_mean_anomaly": 298.1014,
        "meta_ephemeris_type": 0,
        "meta_classification_type": "U",
        "meta_norad_cat_id": 35071,
        "meta_element_set_no": 999,
        "meta_rev_at_epoch": 67582,
        "meta_bstar": 0.00048026378,
        "meta_mean_motion_dot": 6.858e-05,
        "meta_mean_motion_ddot": 0,
        "tle_line1": "1 35071U 93036AJA 25349.77398119  .00006858  00000+0  48026-3 0  9994",
        "tle_line2": "2 35071  73.9308 167.1964 0068223  62.7100 298.1014 15.03518850675828"
      },
      "geometry": {
        "type": "Point",
        "coordinates": [
          92.24212085959444,
          -72.85270387642493
        ]
      }
    }
  ]
}